{
  "type": "FeatureCollection",
  "features": [
    {
      "type": "Feature",
      "properties": {
        "norad_id": 40362,
        "name": "YAOGAN-26",
        "group": "resource",
        "lat": 0.09104536858374879,
        "lon": 167.38828044408277,
        "alt_km": 454.97699423048016,
        "timestamp": "2025-12-12T16:50:32.804734+00:00",
        "meta_object_name": "YAOGAN-26",
        "meta_object_id": "2014-088A",
        "meta_epoch": "2025-12-12T06:42:10.979136",
        "meta_mean_motion": 15.39277273,
        "meta_eccentricity": 0.00062369,
        "meta_inclination": 97.0646,
        "meta_ra_of_asc_node": 346.9695,
        "meta_arg_of_pericenter": 31.3315,
        "meta_mean_anomaly": 328.8302,
        "meta_ephemeris_type": 0,
        "meta_classification_type": "U",
        "meta_norad_cat_id": 40362,
        "meta_element_set_no": 999,
        "meta_rev_at_epoch": 60887,
        "meta_bstar": 0.00073574284,
        "meta_mean_motion_dot": 0.00028677,
        "meta_mean_motion_ddot": 0,
        "tle_line1": "1 40362U 14088A   25346.27929374  .00028677  00000+0  73574-3 0  9997",
        "tle_line2": "2 40362  97.0646 346.9695 0006236  31.3315 328.8302 15.39277273608875"
      },
      "geometry": {
        "type": "Point",
        "coordinates": [
          167.38828044408277,
          0.09104536858374879
        ]
      }
    },
    {
      "type": "Feature",
      "properties": {
        "norad_id": 40376,
        "name": "SMAP",
        "group": "resource",
        "lat": 76.25991864337007,
        "lon": -44.34631672899778,
        "alt_km": 674.3419302152979,
        "timestamp": "2025-12-12T16:50:32.804745+00:00",
        "meta_object_name": "SMAP",
        "meta_object_id": "2015-003A",
        "meta_epoch": "2025-12-12T06:38:13.181280",
        "meta_mean_motion": 14.63344192,
        "meta_eccentricity": 0.00012033,
        "meta_inclination": 98.1292,
        "meta_ra_of_asc_node": 351.0071,
        "meta_arg_of_pericenter": 89.7362,
        "meta_mean_anomaly": 270.3978,
        "meta_ephemeris_type": 0,
        "meta_classification_type": "U",
        "meta_norad_cat_id": 40376,
        "meta_element_set_no": 999,
        "meta_rev_at_epoch": 58028,
        "meta_bstar": 0.00018704463,
        "meta_mean_motion_dot": 9.19e-06,
        "meta_mean_motion_ddot": 0,
        "tle_line1": "1 40376U 15003A   25346.27654145  .00000919  00000+0  18704-3 0  9994",
        "tle_line2": "2 40376  98.1292 351.0071 0001203  89.7362 270.3978 14.63344192580287"
      },
      "geometry": {
        "type": "Point",
        "coordinates": [
          -44.34631672899778,
          76.25991864337007
        ]
      }
    },
    {
      "type": "Feature",
      "properties": {
        "norad_id": 40536,
        "name": "KOMPSAT-3A",
        "group": "resource",
        "lat": 59.45894938378398,
        "lon": 154.26542764977,
        "alt_km": 425.4537167511535,
        "timestamp": "2025-12-12T16:50:32.804754+00:00",
        "meta_object_name": "KOMPSAT-3A",
        "meta_object_id": "2015-014A",
        "meta_epoch": "2025-12-12T05:26:16.816992",
        "meta_mean_motion": 15.43914113,
        "meta_eccentricity": 0.00049115,
        "meta_inclination": 97.6788,
        "meta_ra_of_asc_node": 320.5445,
        "meta_arg_of_pericenter": 128.5924,
        "meta_mean_anomaly": 231.5764,
        "meta_ephemeris_type": 0,
        "meta_classification_type": "U",
        "meta_norad_cat_id": 40536,
        "meta_element_set_no": 999,
        "meta_rev_at_epoch": 59287,
        "meta_bstar": 0.00058190071,
        "meta_mean_motion_dot": 0.00026418,
        "meta_mean_motion_ddot": 0,
        "tle_line1": "1 40536U 15014A   25346.22658353  .00026418  00000+0  58190-3 0  9999",
        "tle_line2": "2 40536  97.6788 320.5445 0004911 128.5924 231.5764 15.43914113592875"
      },
      "geometry": {
        "type": "Point",
        "coordinates": [
          154.26542764977,
          59.45894938378398
        ]
      }
    },
    {
      "type": "Feature",
      "properties": {
        "norad_id": 40697,
        "name": "SENTINEL-2A",
        "group": "resource",
        "lat": -47.677809917635166,
        "lon": 68.76421183658222,
        "alt_km": 796.3660342292123,
        "timestamp": "2025-12-12T16:50:32.804765+00:00",
        "meta_object_name": "SENTINEL-2A",
        "meta_object_id": "2015-028A",
        "meta_epoch": "2025-12-12T06:59:53.776896",
        "meta_mean_motion": 14.30812998,
        "meta_eccentricity": 0.00010849,
        "meta_inclination": 98.5685,
        "meta_ra_of_asc_node": 58.8299,
        "meta_arg_of_pericenter": 89.238,
        "meta_mean_anomaly": 270.8927,
        "meta_ephemeris_type": 0,
        "meta_classification_type": "U",
        "meta_norad_cat_id": 40697,
        "meta_element_set_no": 999,
        "meta_rev_at_epoch": 54700,
        "meta_bstar": 0.00014115992,
        "meta_mean_motion_dot": 3.26e-06,
        "meta_mean_motion_ddot": 0,
        "tle_line1": "1 40697U 15028A   25346.29159464  .00000326  00000+0  14116-3 0  9998",
        "tle_line2": "2 40697  98.5685  58.8299 0001084  89.2380 270.8927 14.30812998547009"
      },
      "geometry": {
        "type": "Point",
        "coordinates": [
          68.76421183658222,
          -47.677809917635166
        ]
      }
    },
    {
      "type": "Feature",
      "properties": {
        "norad_id": 40701,
        "name": "GAOFEN-8",
        "group": "resource",
        "lat": -16.27763779863499,
        "lon": 167.10178844042616,
        "alt_km": 462.5069977670728,
        "timestamp": "2025-12-12T16:50:32.804775+00:00",
        "meta_object_name": "GAOFEN-8",
        "meta_object_id": "2015-030A",
        "meta_epoch": "2025-12-12T07:32:53.746080",
        "meta_mean_motion": 15.38529261,
        "meta_eccentricity": 0.00116616,
        "meta_inclination": 97.6912,
        "meta_ra_of_asc_node": 164.4342,
        "meta_arg_of_pericenter": 139.2369,
        "meta_mean_anomaly": 220.9751,
        "meta_ephemeris_type": 0,
        "meta_classification_type": "U",
        "meta_norad_cat_id": 40701,
        "meta_element_set_no": 999,
        "meta_rev_at_epoch": 58264,
        "meta_bstar": 0.00079844701,
        "meta_mean_motion_dot": 0.00030427,
        "meta_mean_motion_ddot": 0,
        "tle_line1": "1 40701U 15030A   25346.31451095  .00030427  00000+0  79845-3 0  9990",
        "tle_line2": "2 40701  97.6912 164.4342 0011661 139.2369 220.9751 15.38529261582643"
      },
      "geometry": {
        "type": "Point",
        "coordinates": [
          167.10178844042616,
          -16.27763779863499
        ]
      }
    },
    {
      "type": "Feature",
      "properties": {
        "norad_id": 40718,
        "name": "CARBONITE 1 (CBNT-1)",
        "group": "resource",
        "lat": -75.04140726855722,
        "lon": -162.0916979268285,
        "alt_km": 629.9700827765046,
        "timestamp": "2025-12-12T16:50:32.804785+00:00",
        "meta_object_name": "CARBONITE 1 (CBNT-1)",
        "meta_object_id": "2015-032D",
        "meta_epoch": "2025-12-12T07:28:21.852192",
        "meta_mean_motion": 14.82741688,
        "meta_eccentricity": 0.00143773,
        "meta_inclination": 97.6404,
        "meta_ra_of_asc_node": 167.3743,
        "meta_arg_of_pericenter": 182.8579,
        "meta_mean_anomaly": 177.2555,
        "meta_ephemeris_type": 0,
        "meta_classification_type": "U",
        "meta_norad_cat_id": 40718,
        "meta_element_set_no": 999,
        "meta_rev_at_epoch": 56164,
        "meta_bstar": 0.00056065854,
        "meta_mean_motion_dot": 4.487e-05,
        "meta_mean_motion_ddot": 0,
        "tle_line1": "1 40718U 15032D   25346.31136403  .00004487  00000+0  56066-3 0  9990",
        "tle_line2": "2 40718  97.6404 167.3743 0014377 182.8579 177.2555 14.82741688561648"
      },
      "geometry": {
        "type": "Point",
        "coordinates": [
          -162.0916979268285,
          -75.04140726855722
        ]
      }
    },
    {
      "type": "Feature",
      "properties": {
        "norad_id": 40878,
        "name": "YAOGAN-27",
        "group": "resource",
        "lat": 3.712330998591327,
        "lon": -24.339547689790347,
        "alt_km": 1200.704584766473,
        "timestamp": "2025-12-12T16:50:32.804795+00:00",
        "meta_object_name": "YAOGAN-27",
        "meta_object_id": "2015-040A",
        "meta_epoch": "2025-12-12T07:42:02.879424",
        "meta_mean_motion": 13.16062204,
        "meta_eccentricity": 0.00076261,
        "meta_inclination": 100.1016,
        "meta_ra_of_asc_node": 335.9595,
        "meta_arg_of_pericenter": 287.9259,
        "meta_mean_anomaly": 72.1023,
        "meta_ephemeris_type": 0,
        "meta_classification_type": "U",
        "meta_norad_cat_id": 40878,
        "meta_element_set_no": 999,
        "meta_rev_at_epoch": 49308,
        "meta_bstar": 0.0011432414,
        "meta_mean_motion_dot": 3.92e-06,
        "meta_mean_motion_ddot": 0,
        "tle_line1": "1 40878U 15040A   25346.32086666  .00000392  00000+0  11432-2 0  9990",
        "tle_line2": "2 40878 100.1016 335.9595 0007626 287.9259  72.1023 13.16062204493084"
      },
      "geometry": {
        "type": "Point",
        "coordinates": [
          -24.339547689790347,
          3.712330998591327
        ]
      }
    }
  ]
}